[{"OBJECT_NAME":"STARLINK-30069","OBJECT_ID":"2023-079M","EPOCH":"2026-03-08T11:34:15.947328","MEAN_MOTION":15.26726881,"ECCENTRICITY":4.69e-5,"INCLINATION":42.9986,"RA_OF_ASC_NODE":110.4464,"ARG_OF_PERICENTER":272.6695,"MEAN_ANOMALY":87.4103,"EPHEMERIS_TYPE":0,"CLASSIFICATION_TYPE":"U","NORAD_CAT_ID":56834,"ELEMENT_SET_NO":999,"REV_AT_EPOCH":15274,"BSTAR":-8.0472e-5,"MEAN_MOTION_DOT":-2.416e-5,"MEAN_MOTION_DDOT":0},{"OBJECT_NAME":"STARLINK-35863","OBJECT_ID":"2025-303H","EPOCH":"2026-03-09T01:07:00.537600","MEAN_MOTION":15.2758932,"ECCENTRICITY":0.00015011,"INCLINATION":42.9985,"RA_OF_ASC_NODE":314.6176,"ARG_OF_PERICENTER":262.5934,"MEAN_ANOMALY":97.4747,"EPHEMERIS_TYPE":0,"CLASSIFICATION_TYPE":"U","NORAD_CAT_ID":67170,"ELEMENT_SET_NO":999,"REV_AT_EPOCH":1263,"BSTAR":0.0018938385,"MEAN_MOTION_DOT":0.00052237,"MEAN_MOTION_DDOT":0}]
